#dP2018  8  5  0  0  0.00000000      96 __u+U ITR00 FIT  IAC
## 2013      0.00000000   900.00000000 58335 0.0000000000000
+   86   C01C03C04C05C06C07C08C09C10C11C12C13C14E01E02E03E04
+        E05E07E08E09E11E12E14E18E19E24E26E30G01G02G03G05G06
+        G07G08G09G10G11G12G13G14G15G16G17G18G19G20G21G22G23
+        G24G25G26G27G28G29G30G31G32J01J02J03R01R02R03R04R05
+        R07R08R09R10R11R13R14R15R16R17R18R19R20R21R22R23R24
+        R26  0  0  0  0  0  0  0  0  0  0  0  0  0  0  0  0
++        12 12  0 12  9  9  9  8  8  8  8  8  8  7  6  6  7
++         6  6  7  6  6  6  6  7  7  6  7  6  3  3  3  3  3
++         3  3  3  3  4  3  3  4  3  3  3  3  3  3  3  3  3
++         3  3  3  5  3  3  3  3  4 10 10 10  6  5  5  5  6
++         6  5  5  6  5  5  5  5  5  5  5  5  5  5  5  5  6
++         8  0  0  0  0  0  0  0  0  0  0  0  0  0  0  0  0
%c M  cc GPS ccc cccc cccc cccc cccc ccccc ccccc ccccc ccccc
%c cc cc ccc ccc cccc cccc cccc cccc ccccc ccccc ccccc ccccc
%f  0.0000000  0.000000000  0.00000000000  0.000000000000000
%f  0.0000000  0.000000000  0.00000000000  0.000000000000000
%i    0    0    0    0      0      0      0      0         0
%i    0    0    0    0      0      0      0      0         0
/* INFORMATION & ANALYSIS CENTER (IAC) OF MCC   (RAPID DATA)
/* S/V CLOCKS ARE ALIGNED TO GPS & GLONASS TIME RESPECTIVELY
/* USING THE BROADCAST EPHEMERIS                            
/* PCV:IGS14_2000 OL/AL:FES2004  NONE     YN ORB:CoN CLK:CoN
*  2018 08 05 16 30  0.00000000
PC01 -32322.434697  27100.507352   -454.059868    431.936254
PC03 -14728.893436  39478.254643   -955.671868    301.659191
PC04      0.000000      0.000000      0.000000 999999.999999
PC05  21961.066079  35995.300814   -307.051361    250.886620
PC06 -20794.098345  24657.511720  27277.365012    206.803339
PC07 -16777.670863  38057.301642   8486.374954     36.636572
PC08  -6477.009571  23844.167008 -34051.094340    470.619767
PC09  -6953.297968  25260.743224  33163.496592    113.140058
PC10  -6550.618832  41533.452995  -5146.708155   -442.605188
PC11  24560.367120   -920.186508  13193.212384   -622.342994
PC12  24758.635067  11671.325578  -5120.563210    546.175520
PC13   4910.495168  31666.690158 -27271.345920   -212.099248
PC14  23306.775886 -10224.917930  11562.109886    358.270252
PE01 -16304.661454  11395.079523  21927.388470   -406.267913
PE02  16296.661053 -11414.747674 -21911.727676     22.308050
PE03  27842.733291  -9999.171156    764.727545    -62.391462
PE04 -16056.065495  18636.395514  16474.737201    -90.052629
PE05  23357.175283   4529.232690  17617.555693    216.489276
PE07  -5227.990947 -16350.870000 -24099.960499    -14.768078
PE08  15913.270513 -18683.211664 -16530.776741   6529.572787
PE09   5276.486497  16199.795600  24218.650824   6714.534632
PE11  14443.902791  22473.727563 -12774.907947   3335.078294
PE12  -4967.684137  16625.520598 -23986.368972   4760.822373
PE14  -7154.571932  19577.807943 -24552.543560   6540.110335
PE18  11674.285350 -12561.636690  16838.719227   6005.577265
PE19 -28115.453834   8888.767722  -2554.285234    -13.463817
PE24   3398.587373  26979.803952 -11695.531749   6563.028528
PE26 -24814.304352 -15188.433051  -5473.460327   5628.011978
PE30   9210.258552 -27189.328239  -7213.135934   5620.177112
PG01  17458.849375   5116.425185  19295.557665    -73.213218
PG02 -15103.277907 -21789.223870  -2475.556780     36.933547
PG03  18691.277342  -6422.061707  17685.786219    116.877314
PG05  -8963.182171 -14000.259186 -20782.203386     -3.596077
PG06  -4302.551176 -23901.157596  10754.646584    379.628567
PG07  10905.619494 -11350.393642 -21096.494262    146.842769
PG08  24824.772988   5918.512668  -7594.869649   -110.616756
PG09  21912.006466  -8307.069101 -12539.540775    511.969359
PG10  -9833.918457  23782.935172   6247.717992    187.632792
PG11  22670.505196   6025.661283  11723.380000   -726.459041
PG12 -16837.292908    315.761646  20296.322198    316.141630
PG13 -19124.207923 -12579.342025 -13585.684424    -91.439567
PG14   5049.152164  15568.610700  21253.588487    -97.647583
PG15 -26261.885865  -2437.775562  -4804.326107   -349.206368
PG16   6108.538281  15036.380132 -21089.745589     14.851703
PG17   5869.946929 -14207.989109  22033.355344    -70.592167
PG18  18571.920670  13550.209667  12974.119900     42.175554
PG19  -4433.544813 -14948.892622  21179.863631   -414.359149
PG20 -14241.129314  21977.801413  -4234.205420    513.639890
PG21  -7062.382983  15697.027206 -19444.908202   -357.071572
PG22  16691.923183   2110.334425  20788.142370   -480.056947
PG23  26623.227585  -1114.792542  -2487.856042   -213.332521
PG24 -18937.301336  -8530.665780  16597.487493    -53.544995
PG25 -18621.909827  14826.540914  11353.470888   -627.061462
PG26  -1160.675588  22009.786904 -14732.645038    -61.116475
PG27  16828.339215  12027.638821 -16893.238915    356.206290
PG28  13146.961705 -22688.218609   5000.315020    736.216844
PG29 -23269.498487   5383.314218 -11641.158488    401.597195
PG30   3637.837192 -20486.305387 -16393.443934     41.529530
PG31   5012.001764  24339.903325   8792.985647    102.755237
PG32  -5036.600480  14934.203389  21411.143243   -458.947367
PJ01 -25497.071133  33637.106405   2924.149384   -153.032982
PJ02 -25704.222554  23987.064404  27816.806366    -11.513895
PJ03 -32206.828078  18415.485597 -15350.190889     -5.636497
PR01 -12330.735664  16420.417452  15149.275386     30.097656
PR02   6638.331764   8746.860402  23066.148297    323.229054
PR03  19902.729052  -3393.032309  15658.632804    139.672333
PR04  21403.947759 -13826.484697  -1312.939226    271.221360
PR05  10094.228356 -16107.975793 -17007.996640    -51.653509
PR07 -20070.159393   3714.345140 -15238.110104    -44.102809
PR08 -21584.985032  13571.463922    756.178018     21.934311
PR09  -6584.606259 -20895.678950  13017.814127     21.715586
PR10 -10466.970738  -5344.343280  22610.560003     29.165798
PR11  -8952.556725  14275.506115  19188.875965    -36.797622
PR13   6676.245073  21022.242630 -12840.725436    -13.263967
PR14  10727.254930   5545.562419 -22456.672735     29.743653
PR15   9697.739700 -10106.527143 -21330.187309    -14.230220
PR16   1814.091257 -24875.376441  -5615.589448     98.587714
PR17  22882.426851   9610.204347   5810.334213    153.634916
PR18  16310.126574  -1190.357346  19604.133653    205.645687
PR19    691.974415 -11480.278832  22761.485561    -57.562216
PR20 -16371.660906 -15634.959831  11708.948512   -347.662746
PR21 -22896.194071  -9418.606120  -6205.823598      3.564457
PR22 -14553.643486   2654.560410 -20746.483269    -58.089600
PR23   3590.985913  13192.176589 -21548.614254    170.133781
PR24  17385.480966  15280.899448 -10764.951092   -169.765171
PR26 -15922.406689 -15415.076877  12658.232204     39.165590
EOF
